STARLINK-4178           
1 53277U 22086AM  26031.25915293  .00000533  00000+0  51550-4 0  9990
2 53277  53.2185 352.1825 0001311  93.6236 266.4906 15.08840272195545
STARLINK-4180           
1 53278U 22086AN  26031.85899169  .00001299  00000+0  99742-4 0  9995
2 53278  53.2194 349.4615 0001595  89.5923 270.5252 15.08832866195633
STARLINK-4169           
1 53280U 22086AQ  26031.91277373  .00002257  00000+0  15987-3 0  9995
2 53280  53.2176 303.8930 0001470  96.2245 263.8915 15.08838452196284
STARLINK-4164           
1 53282U 22086AS  26031.58667105  .00000727  00000+0  63783-4 0  9994
2 53282  53.2190 350.6833 0001246  87.7573 272.3562 15.08832857195593
STARLINK-4175           
1 53283U 22086AT  26031.90682594  .00000996  00000+0  80646-4 0  9995
2 53283  53.2191 349.2493 0001790  91.6296 268.4901 15.08854913195647
STARLINK-4173           
1 53285U 22086AV  26031.29962924 -.00000090  00000+0  12425-4 0  9993
2 53285  53.2191 351.9717 0001468  92.0120 268.1040 15.08838259195546
STARLINK-4165           
1 53286U 22086AW  26031.87367130  .00000306  00000+0  37301-4 0  9995
2 53286  53.2194 349.0863 0001584  74.9258 285.1909 15.08843387195631
STARLINK-4107           
1 53287U 22086AX  26031.29226744 -.00003216  00000+0 -18402-3 0  9992
2 53287  53.2192 352.0044 0001264  91.2539 268.8598 15.08846099195549
STARLINK-4162           
1 53288U 22086AY  26031.89946610  .00003572  00000+0  24235-3 0  9994
2 53288  53.2190 349.2829 0001179  80.4522 279.6603 15.08846243195632
STARLINK-4176           
1 53289U 22086AZ  26031.86496559  .00003694  00000+0  24989-3 0  9995
2 53289  53.2229 344.5749 0001318 121.6316 238.4805 15.08861393195695
STARLINK-4149           
1 53290U 22086BA  26031.29594565  .00002004  00000+0  14394-3 0  9993
2 53290  53.2202 351.9937 0001814  79.6951 280.4246 15.08857903195549
STARLINK-4166           
1 53291U 22086BB  26031.56686319  .00000969  00000+0  78948-4 0  9997
2 53291  53.2183 345.5617 0001366  80.1948 279.9199 15.08838154195656
STARLINK-4159           
1 53292U 22086BC  26031.90316399  .00001591  00000+0  11804-3 0  9993
2 53292  53.2193 349.4426 0001445 102.7780 257.3374 15.08837475195630
STARLINK-4148           
1 53293U 22086BD  26031.85623243 -.00000248  00000+0  25092-5 0  9992
2 53293  53.2188 339.4667 0001274  66.1646 293.9480 15.08833436195766
STARLINK-4146           
1 53294U 22086BE  26031.87460786  .00000969  00000+0  78946-4 0  9990
2 53294  53.2193 339.2276 0001227  95.3778 264.7354 15.08837475195814
STARLINK-4522           
1 53388U 22097A   26031.89395158  .00000698  00000+0  61946-4 0  9999
2 53388  53.2186 289.3053 0001370 103.5285 256.5860 15.08836557193293
