[{"OBJECT_NAME":"STARLINK-4178","OBJECT_ID":"2022-086AM","EPOCH":"2026-01-31T06:13:10.813152","MEAN_MOTION":15.08840272,"ECCENTRICITY":0.0001311,"INCLINATION":53.2185,"RA_OF_ASC_NODE":352.1825,"ARG_OF_PERICENTER":93.6236,"MEAN_ANOMALY":266.4906,"EPHEMERIS_TYPE":0,"CLASSIFICATION_TYPE":"U","NORAD_CAT_ID":53277,"ELEMENT_SET_NO":999,"REV_AT_EPOCH":19554,"BSTAR":5.155e-5,"MEAN_MOTION_DOT":5.33e-6,"MEAN_MOTION_DDOT":0},{"OBJECT_NAME":"STARLINK-4180","OBJECT_ID":"2022-086AN","EPOCH":"2026-01-31T20:36:56.882016","MEAN_MOTION":15.08832866,"ECCENTRICITY":0.00015953,"INCLINATION":53.2194,"RA_OF_ASC_NODE":349.4615,"ARG_OF_PERICENTER":89.5923,"MEAN_ANOMALY":270.5252,"EPHEMERIS_TYPE":0,"CLASSIFICATION_TYPE":"U","NORAD_CAT_ID":53278,"ELEMENT_SET_NO":999,"REV_AT_EPOCH":19563,"BSTAR":9.9742207e-5,"MEAN_MOTION_DOT":1.299e-5,"MEAN_MOTION_DDOT":0},{"OBJECT_NAME":"STARLINK-4169","OBJECT_ID":"2022-086AQ","EPOCH":"2026-01-31T21:54:23.650272","MEAN_MOTION":15.08838452,"ECCENTRICITY":0.00014708,"INCLINATION":53.2176,"RA_OF_ASC_NODE":303.893,"ARG_OF_PERICENTER":96.2245,"MEAN_ANOMALY":263.8915,"EPHEMERIS_TYPE":0,"CLASSIFICATION_TYPE":"U","NORAD_CAT_ID":53280,"ELEMENT_SET_NO":999,"REV_AT_EPOCH":19628,"BSTAR":0.00015986941,"MEAN_MOTION_DOT":2.257e-5,"MEAN_MOTION_DDOT":0},{"OBJECT_NAME":"STARLINK-4164","OBJECT_ID":"2022-086AS","EPOCH":"2026-01-31T14:04:48.378720","MEAN_MOTION":15.08832857,"ECCENTRICITY":0.00012461,"INCLINATION":53.219,"RA_OF_ASC_NODE":350.6833,"ARG_OF_PERICENTER":87.7573,"MEAN_ANOMALY":272.3562,"EPHEMERIS_TYPE":0,"CLASSIFICATION_TYPE":"U","NORAD_CAT_ID":53282,"ELEMENT_SET_NO":999,"REV_AT_EPOCH":19559,"BSTAR":6.3783098e-5,"MEAN_MOTION_DOT":7.27e-6,"MEAN_MOTION_DDOT":0},{"OBJECT_NAME":"STARLINK-4175","OBJECT_ID":"2022-086AT","EPOCH":"2026-01-31T21:45:49.761216","MEAN_MOTION":15.08854913,"ECCENTRICITY":0.00017905,"INCLINATION":53.2191,"RA_OF_ASC_NODE":349.2493,"ARG_OF_PERICENTER":91.6296,"MEAN_ANOMALY":268.4901,"EPHEMERIS_TYPE":0,"CLASSIFICATION_TYPE":"U","NORAD_CAT_ID":53283,"ELEMENT_SET_NO":999,"REV_AT_EPOCH":19564,"BSTAR":8.0645665e-5,"MEAN_MOTION_DOT":9.96e-6,"MEAN_MOTION_DDOT":0},{"OBJECT_NAME":"STARLINK-4173","OBJECT_ID":"2022-086AV","EPOCH":"2026-01-31T07:11:27.966336","MEAN_MOTION":15.08838259,"ECCENTRICITY":0.0001468,"INCLINATION":53.2191,"RA_OF_ASC_NODE":351.9717,"ARG_OF_PERICENTER":92.012,"MEAN_ANOMALY":268.104,"EPHEMERIS_TYPE":0,"CLASSIFICATION_TYPE":"U","NORAD_CAT_ID":53285,"ELEMENT_SET_NO":999,"REV_AT_EPOCH":19554,"BSTAR":1.2425e-5,"MEAN_MOTION_DOT":-9.0e-7,"MEAN_MOTION_DDOT":0},{"OBJECT_NAME":"STARLINK-4165","OBJECT_ID":"2022-086AW","EPOCH":"2026-01-31T20:58:05.200320","MEAN_MOTION":15.08843387,"ECCENTRICITY":0.00015848,"INCLINATION":53.2194,"RA_OF_ASC_NODE":349.0863,"ARG_OF_PERICENTER":74.9258,"MEAN_ANOMALY":285.1909,"EPHEMERIS_TYPE":0,"CLASSIFICATION_TYPE":"U","NORAD_CAT_ID":53286,"ELEMENT_SET_NO":999,"REV_AT_EPOCH":19563,"BSTAR":3.7301431e-5,"MEAN_MOTION_DOT":3.06e-6,"MEAN_MOTION_DDOT":0},{"OBJECT_NAME":"STARLINK-4107","OBJECT_ID":"2022-086AX","EPOCH":"2026-01-31T07:00:51.906816","MEAN_MOTION":15.08846099,"ECCENTRICITY":0.0001264,"INCLINATION":53.2192,"RA_OF_ASC_NODE":352.0044,"ARG_OF_PERICENTER":91.2539,"MEAN_ANOMALY":268.8598,"EPHEMERIS_TYPE":0,"CLASSIFICATION_TYPE":"U","NORAD_CAT_ID":53287,"ELEMENT_SET_NO":999,"REV_AT_EPOCH":19554,"BSTAR":-0.00018402,"MEAN_MOTION_DOT":-3.216e-5,"MEAN_MOTION_DDOT":0},{"OBJECT_NAME":"STARLINK-4162","OBJECT_ID":"2022-086AY","EPOCH":"2026-01-31T21:35:13.871040","MEAN_MOTION":15.08846243,"ECCENTRICITY":0.00011792,"INCLINATION":53.219,"RA_OF_ASC_NODE":349.2829,"ARG_OF_PERICENTER":80.4522,"MEAN_ANOMALY":279.6603,"EPHEMERIS_TYPE":0,"CLASSIFICATION_TYPE":"U","NORAD_CAT_ID":53288,"ELEMENT_SET_NO":999,"REV_AT_EPOCH":19563,"BSTAR":0.00024234833,"MEAN_MOTION_DOT":3.572e-5,"MEAN_MOTION_DDOT":0},{"OBJECT_NAME":"STARLINK-4176","OBJECT_ID":"2022-086AZ","EPOCH":"2026-01-31T20:45:33.026976","MEAN_MOTION":15.08861393,"ECCENTRICITY":0.00013189,"INCLINATION":53.2229,"RA_OF_ASC_NODE":344.5749,"ARG_OF_PERICENTER":121.6316,"MEAN_ANOMALY":238.4805,"EPHEMERIS_TYPE":0,"CLASSIFICATION_TYPE":"U","NORAD_CAT_ID":53289,"ELEMENT_SET_NO":999,"REV_AT_EPOCH":19569,"BSTAR":0.00024988788,"MEAN_MOTION_DOT":3.694e-5,"MEAN_MOTION_DDOT":0},{"OBJECT_NAME":"STARLINK-4149","OBJECT_ID":"2022-086BA","EPOCH":"2026-01-31T07:06:09.704160","MEAN_MOTION":15.08857903,"ECCENTRICITY":0.0001814,"INCLINATION":53.2202,"RA_OF_ASC_NODE":351.9937,"ARG_OF_PERICENTER":79.6951,"MEAN_ANOMALY":280.4246,"EPHEMERIS_TYPE":0,"CLASSIFICATION_TYPE":"U","NORAD_CAT_ID":53290,"ELEMENT_SET_NO":999,"REV_AT_EPOCH":19554,"BSTAR":0.00014394,"MEAN_MOTION_DOT":2.004e-5,"MEAN_MOTION_DDOT":0},{"OBJECT_NAME":"STARLINK-4166","OBJECT_ID":"2022-086BB","EPOCH":"2026-01-31T13:36:16.979616","MEAN_MOTION":15.08838154,"ECCENTRICITY":0.0001366,"INCLINATION":53.2183,"RA_OF_ASC_NODE":345.5617,"ARG_OF_PERICENTER":80.1948,"MEAN_ANOMALY":279.9199,"EPHEMERIS_TYPE":0,"CLASSIFICATION_TYPE":"U","NORAD_CAT_ID":53291,"ELEMENT_SET_NO":999,"REV_AT_EPOCH":19565,"BSTAR":7.8948341e-5,"MEAN_MOTION_DOT":9.69e-6,"MEAN_MOTION_DDOT":0},{"OBJECT_NAME":"STARLINK-4159","OBJECT_ID":"2022-086BC","EPOCH":"2026-01-31T21:40:33.368736","MEAN_MOTION":15.08837475,"ECCENTRICITY":0.00014458,"INCLINATION":53.2193,"RA_OF_ASC_NODE":349.4426,"ARG_OF_PERICENTER":102.778,"MEAN_ANOMALY":257.3374,"EPHEMERIS_TYPE":0,"CLASSIFICATION_TYPE":"U","NORAD_CAT_ID":53292,"ELEMENT_SET_NO":999,"REV_AT_EPOCH":19563,"BSTAR":0.00011803717,"MEAN_MOTION_DOT":1.591e-5,"MEAN_MOTION_DDOT":0},{"OBJECT_NAME":"STARLINK-4148","OBJECT_ID":"2022-086BD","EPOCH":"2026-01-31T20:32:58.481952","MEAN_MOTION":15.08833436,"ECCENTRICITY":0.00012746,"INCLINATION":53.2188,"RA_OF_ASC_NODE":339.4667,"ARG_OF_PERICENTER":66.1646,"MEAN_ANOMALY":293.948,"EPHEMERIS_TYPE":0,"CLASSIFICATION_TYPE":"U","NORAD_CAT_ID":53293,"ELEMENT_SET_NO":999,"REV_AT_EPOCH":19576,"BSTAR":2.509203e-6,"MEAN_MOTION_DOT":-2.48e-6,"MEAN_MOTION_DDOT":0},{"OBJECT_NAME":"STARLINK-4146","OBJECT_ID":"2022-086BE","EPOCH":"2026-01-31T20:59:26.119104","MEAN_MOTION":15.08837475,"ECCENTRICITY":0.00012274,"INCLINATION":53.2193,"RA_OF_ASC_NODE":339.2276,"ARG_OF_PERICENTER":95.3778,"MEAN_ANOMALY":264.7354,"EPHEMERIS_TYPE":0,"CLASSIFICATION_TYPE":"U","NORAD_CAT_ID":53294,"ELEMENT_SET_NO":999,"REV_AT_EPOCH":19581,"BSTAR":7.8945837e-5,"MEAN_MOTION_DOT":9.69e-6,"MEAN_MOTION_DDOT":0},{"OBJECT_NAME":"STARLINK-4522","OBJECT_ID":"2022-097A","EPOCH":"2026-01-31T21:27:17.416512","MEAN_MOTION":15.08836557,"ECCENTRICITY":0.000137,"INCLINATION":53.2186,"RA_OF_ASC_NODE":289.3053,"ARG_OF_PERICENTER":103.5285,"MEAN_ANOMALY":256.586,"EPHEMERIS_TYPE":0,"CLASSIFICATION_TYPE":"U","NORAD_CAT_ID":53388,"ELEMENT_SET_NO":999,"REV_AT_EPOCH":19329,"BSTAR":6.1945608e-5,"MEAN_MOTION_DOT":6.98e-6,"MEAN_MOTION_DDOT":0}]
